{
  "type": "FeatureCollection",
  "generator": "overpass-ide",
  "copyright": "The data included in this document is from www.openstreetmap.org. The data is made available under ODbL.",
  "timestamp": "2018-02-27T15:16:02Z",
  "features": [
    {
      "type": "Feature",
      "properties": {
        "@id": "way/42138174",
        "addr:city": "Rheinzabern",
        "addr:country": "DE",
        "addr:postcode": "76764",
        "addr:street": "Aussiedlerhof Zirkerhof",
        "building": "yes",
        "shop": "farm"
      },
      "geometry": {
        "type": "Polygon",
        "coordinates": [
          [
            [
              8.2912809,
              49.133917
            ],
            [
              8.2913645,
              49.1339608
            ],
            [
              8.2911335,
              49.1341094
            ],
            [
              8.2911895,
              49.134137
            ],
            [
              8.290716,
              49.134428
            ],
            [
              8.2906593,
              49.1343818
            ],
            [
              8.2905992,
              49.1344204
            ],
            [
              8.2905357,
              49.1343728
            ],
            [
              8.2904964,
              49.1343999
            ],
            [
              8.2906013,
              49.1344667
            ],
            [
              8.2905002,
              49.1345284
            ],
            [
              8.2903315,
              49.1344109
            ],
            [
              8.2905133,
              49.1342983
            ],
            [
              8.2905629,
              49.1343348
            ],
            [
              8.2912809,
              49.133917
            ]
          ]
        ]
      },
      "id": "way/42138174"
    },
    {
      "type": "Feature",
      "properties": {
        "@id": "way/53771161",
        "addr:city": "Rheinzabern",
        "addr:country": "DE",
        "addr:housenumber": "5",
        "addr:postcode": "76764",
        "addr:street": "Hoppelgasse",
        "building": "yes",
        "name": "Erlenbachhof",
        "shop": "farm"
      },
      "geometry": {
        "type": "Polygon",
        "coordinates": [
          [
            [
              8.2776131,
              49.1190621
            ],
            [
              8.2774656,
              49.1190679
            ],
            [
              8.2774637,
              49.118984
            ],
            [
              8.2776078,
              49.1189816
            ],
            [
              8.2776131,
              49.1190621
            ]
          ]
        ]
      },
      "id": "way/53771161"
    },
    {
      "type": "Feature",
      "properties": {
        "@id": "way/60145815",
        "addr:city": "Rheinzabern",
        "addr:country": "DE",
        "addr:housenumber": "22",
        "addr:postcode": "76764",
        "addr:street": "Römerbadstraße",
        "building": "yes",
        "name": "Weingut Hartmann",
        "shop": "farm"
      },
      "geometry": {
        "type": "Polygon",
        "coordinates": [
          [
            [
              8.2856779,
              49.1117342
            ],
            [
              8.2855755,
              49.1118227
            ],
            [
              8.2853175,
              49.1116911
            ],
            [
              8.2854235,
              49.1116024
            ],
            [
              8.2856779,
              49.1117342
            ]
          ]
        ]
      },
      "id": "way/60145815"
    },
    {
      "type": "Feature",
      "properties": {
        "@id": "way/60146054",
        "addr:city": "Rheinzabern",
        "addr:country": "DE",
        "addr:postcode": "76764",
        "addr:street": "Aussiedlerhof Ohmerhof",
        "building": "yes",
        "name": "Ohmerhof",
        "shop": "farm"
      },
      "geometry": {
        "type": "Polygon",
        "coordinates": [
          [
            [
              8.287525,
              49.1116837
            ],
            [
              8.2871091,
              49.1117572
            ],
            [
              8.2870481,
              49.1116093
            ],
            [
              8.2866955,
              49.1116716
            ],
            [
              8.2864528,
              49.1117145
            ],
            [
              8.2864094,
              49.1116093
            ],
            [
              8.2866491,
              49.1115669
            ],
            [
              8.2874206,
              49.1114306
            ],
            [
              8.287525,
              49.1116837
            ]
          ]
        ]
      },
      "id": "way/60146054"
    },
    {
      "type": "Feature",
      "properties": {
        "@id": "way/60414313",
        "addr:city": "Rheinzabern",
        "addr:country": "DE",
        "addr:postcode": "76764",
        "addr:street": "Wanzenheimer Mühle",
        "building": "yes",
        "shop": "farm"
      },
      "geometry": {
        "type": "Polygon",
        "coordinates": [
          [
            [
              8.2990628,
              49.1232709
            ],
            [
              8.2990072,
              49.123203
            ],
            [
              8.2992053,
              49.1231429
            ],
            [
              8.2992503,
              49.1232204
            ],
            [
              8.2990628,
              49.1232709
            ]
          ]
        ]
      },
      "id": "way/60414313"
    },
    {
      "type": "Feature",
      "properties": {
        "@id": "way/91894985",
        "addr:city": "Calw",
        "addr:housenumber": "2",
        "addr:postcode": "75365",
        "addr:street": "Rosenstraße",
        "building": "yes",
        "name": "Bioland-Betrieb Kober",
        "opening_hours": "\"Nach telefonischer Absprache\"",
        "operator": "Achim Kober",
        "shop": "farm"
      },
      "geometry": {
        "type": "Polygon",
        "coordinates": [
          [
            [
              8.7755478,
              48.6933766
            ],
            [
              8.7756105,
              48.6932878
            ],
            [
              8.7757604,
              48.6933342
            ],
            [
              8.7756977,
              48.693423
            ],
            [
              8.7755478,
              48.6933766
            ]
          ]
        ]
      },
      "id": "way/91894985"
    },
    {
      "type": "Feature",
      "properties": {
        "@id": "way/111573549",
        "addr:city": "Iffezheim",
        "addr:country": "DE",
        "addr:housenumber": "2",
        "addr:postcode": "76473",
        "addr:street": "Spitzenweg",
        "building": "yes",
        "name": "Schneider Spargelhof",
        "phone": "+49 7229 2557",
        "shop": "farm",
        "website": "http://www.schneiderspargel.de/",
        "wheelchair": "yes"
      },
      "geometry": {
        "type": "Polygon",
        "coordinates": [
          [
            [
              8.1310293,
              48.8257473
            ],
            [
              8.1309909,
              48.8256478
            ],
            [
              8.1311777,
              48.8256165
            ],
            [
              8.1312161,
              48.825716
            ],
            [
              8.1310293,
              48.8257473
            ]
          ]
        ]
      },
      "id": "way/111573549"
    },
    {
      "type": "Feature",
      "properties": {
        "@id": "way/112978551",
        "addr:city": "Eggenstein-Leopoldshafen",
        "addr:country": "DE",
        "addr:housename": "Leichts Hofladen",
        "addr:housenumber": "21",
        "addr:postcode": "76344",
        "addr:street": "Landstraße",
        "building": "yes",
        "name": "Erdbeer- und Spargelhof Markus Leicht",
        "opening_hours": "Mo-Su 08:00-19:00",
        "phone": "+49-721-786972",
        "shop": "farm",
        "website": "http://www.leichts-hofladen.de/"
      },
      "geometry": {
        "type": "Polygon",
        "coordinates": [
          [
            [
              8.3954162,
              49.0850932
            ],
            [
              8.3955111,
              49.0850727
            ],
            [
              8.3956225,
              49.0852936
            ],
            [
              8.3956764,
              49.085282
            ],
            [
              8.3957844,
              49.0854961
            ],
            [
              8.3956012,
              49.0855357
            ],
            [
              8.3954929,
              49.0853209
            ],
            [
              8.3955272,
              49.0853135
            ],
            [
              8.3954162,
              49.0850932
            ]
          ]
        ]
      },
      "id": "way/112978551"
    },
    {
      "type": "Feature",
      "properties": {
        "@id": "way/113891106",
        "addr:city": "Eberdingen",
        "addr:country": "DE",
        "addr:housenumber": "1",
        "addr:postcode": "71735",
        "addr:street": "Schillerhöhe",
        "building": "retail",
        "email": "swen.seemann@web.de",
        "fax": "+49 7042 792272",
        "name": "Seemanns Hofladen",
        "opening_hours": "Mo-Fr 08:00-19:15; Sa 08:00-16:00; Jan-Mar off; Nov-Dec off",
        "organic": "yes",
        "phone": "+49 7042 7598",
        "shop": "farm",
        "website": "http://www.bioland-seemann.de/"
      },
      "geometry": {
        "type": "Polygon",
        "coordinates": [
          [
            [
              8.9671509,
              48.886404
            ],
            [
              8.96741,
              48.8864133
            ],
            [
              8.9673948,
              48.8865972
            ],
            [
              8.9673912,
              48.8866399
            ],
            [
              8.9671321,
              48.8866306
            ],
            [
              8.9671399,
              48.8865357
            ],
            [
              8.9671509,
              48.886404
            ]
          ]
        ]
      },
      "id": "way/113891106"
    },
    {
      "type": "Feature",
      "properties": {
        "@id": "way/117126011",
        "addr:city": "Unterreichenbach",
        "addr:housenumber": "3",
        "addr:postcode": "75399",
        "addr:street": "Zu den Mühlen",
        "building": "yes",
        "fuel:svo": "yes",
        "name": "Mühlenladen",
        "opening_hours": "Mo-Su 09:00-21:00",
        "operator": "Eckhard Mönch",
        "shop": "farm",
        "website": "http://www.untere-kapfenhardter-muehle.de/html/de/muehle.htm"
      },
      "geometry": {
        "type": "Polygon",
        "coordinates": [
          [
            [
              8.6907147,
              48.8055989
            ],
            [
              8.6908732,
              48.8055037
            ],
            [
              8.6910797,
              48.805653
            ],
            [
              8.6909212,
              48.8057481
            ],
            [
              8.6907147,
              48.8055989
            ]
          ]
        ]
      },
      "id": "way/117126011"
    },
    {
      "type": "Feature",
      "properties": {
        "@id": "way/125675521",
        "addr:city": "Baden-Baden",
        "addr:country": "DE",
        "addr:housenumber": "1",
        "addr:postcode": "76532",
        "addr:street": "Burnieweg",
        "building": "yes",
        "building:use": "agricultural",
        "fax": "+49 7221 55225",
        "name": "Hofladen Reiß",
        "opening_hours": "Mo-Fr 08:00-19:00; Sa 08:00-16:00",
        "phone": "+49 7221 62371",
        "shop": "farm",
        "website": "http://www.landseehof.de/gugelhupf",
        "wheelchair": "yes"
      },
      "geometry": {
        "type": "Polygon",
        "coordinates": [
          [
            [
              8.2103214,
              48.8200091
            ],
            [
              8.2103177,
              48.8199338
            ],
            [
              8.210472,
              48.8199305
            ],
            [
              8.2104715,
              48.8199212
            ],
            [
              8.2105709,
              48.8199191
            ],
            [
              8.2105751,
              48.8200037
            ],
            [
              8.2103333,
              48.8200088
            ],
            [
              8.2103214,
              48.8200091
            ]
          ]
        ]
      },
      "id": "way/125675521"
    },
    {
      "type": "Feature",
      "properties": {
        "@id": "way/137632349",
        "addr:city": "Lichtenau",
        "addr:housenumber": "32",
        "addr:postcode": "77839",
        "addr:street": "Stollhofener Straße",
        "building": "yes",
        "name": "Hofladen Querfeldein Fraß",
        "opening_hours": "Tu 09:00-18:00; Fr 09:00-18:00; Sa 09:00-13:00",
        "operator": "Fraß",
        "phone": "+49 7227 3811",
        "shop": "farm",
        "website": "http://www.hofladen-querfeldein.de/hoflaeden/lichtenau.php"
      },
      "geometry": {
        "type": "Polygon",
        "coordinates": [
          [
            [
              8.009334,
              48.7327854
            ],
            [
              8.0093158,
              48.7327804
            ],
            [
              8.0091465,
              48.7327384
            ],
            [
              8.0090477,
              48.7327143
            ],
            [
              8.0091015,
              48.73262
            ],
            [
              8.0092343,
              48.7326516
            ],
            [
              8.0093864,
              48.7326889
            ],
            [
              8.009334,
              48.7327854
            ]
          ]
        ]
      },
      "id": "way/137632349"
    },
    {
      "type": "Feature",
      "properties": {
        "@id": "way/141475961",
        "building": "yes",
        "shop": "farm"
      },
      "geometry": {
        "type": "Polygon",
        "coordinates": [
          [
            [
              8.3309439,
              49.1124183
            ],
            [
              8.3309202,
              49.1122953
            ],
            [
              8.3309085,
              49.1122418
            ],
            [
              8.330944,
              49.1122385
            ],
            [
              8.3310667,
              49.1122283
            ],
            [
              8.3311016,
              49.1124049
            ],
            [
              8.3309439,
              49.1124183
            ]
          ]
        ]
      },
      "id": "way/141475961"
    },
    {
      "type": "Feature",
      "properties": {
        "@id": "way/141475978",
        "building": "yes",
        "shop": "farm"
      },
      "geometry": {
        "type": "Polygon",
        "coordinates": [
          [
            [
              8.3270094,
              49.1058718
            ],
            [
              8.3269084,
              49.1057467
            ],
            [
              8.3268427,
              49.1057694
            ],
            [
              8.3268282,
              49.1057495
            ],
            [
              8.3267502,
              49.1056568
            ],
            [
              8.3269192,
              49.1055987
            ],
            [
              8.3270626,
              49.1055495
            ],
            [
              8.3271411,
              49.1056581
            ],
            [
              8.3273613,
              49.1055799
            ],
            [
              8.3274687,
              49.1057129
            ],
            [
              8.3270094,
              49.1058718
            ]
          ]
        ]
      },
      "id": "way/141475978"
    },
    {
      "type": "Feature",
      "properties": {
        "@id": "way/194825881",
        "addr:city": "Althengstett",
        "addr:housename": "Waldenserhof Jourdan",
        "addr:housenumber": "7",
        "addr:postcode": "75382",
        "addr:street": "Möttlinger Straße",
        "addr:suburb": "Neuhengstett",
        "building": "yes",
        "opening_hours": "Mo,We,Fr 17:00-19:00; Sa 09:00-12:00",
        "shop": "farm"
      },
      "geometry": {
        "type": "Polygon",
        "coordinates": [
          [
            [
              8.7805383,
              48.7386262
            ],
            [
              8.7806831,
              48.738539
            ],
            [
              8.780766,
              48.7385989
            ],
            [
              8.7806212,
              48.7386861
            ],
            [
              8.7805383,
              48.7386262
            ]
          ]
        ]
      },
      "id": "way/194825881"
    },
    {
      "type": "Feature",
      "properties": {
        "@id": "way/196784069",
        "addr:city": "Rheinau",
        "addr:housenumber": "1a",
        "addr:postcode": "77866",
        "addr:street": "Renchener Straße",
        "building": "yes",
        "name": "Hofgut Hanau",
        "opening_hours": "Mo-Sa 09:00-19:00",
        "phone": "+49 07802 1629",
        "shop": "farm",
        "source": "local_knowledge",
        "source:geometry": "bing",
        "website": "http://hofgut-hanau.de"
      },
      "geometry": {
        "type": "Polygon",
        "coordinates": [
          [
            [
              7.9266728,
              48.6531604
            ],
            [
              7.9269223,
              48.6530364
            ],
            [
              7.9270457,
              48.6529957
            ],
            [
              7.9270993,
              48.6530541
            ],
            [
              7.9270376,
              48.6530772
            ],
            [
              7.9270671,
              48.6531144
            ],
            [
              7.9271154,
              48.6530913
            ],
            [
              7.9271556,
              48.6531162
            ],
            [
              7.9271315,
              48.6531463
            ],
            [
              7.9271717,
              48.6531711
            ],
            [
              7.9274131,
              48.6530346
            ],
            [
              7.9275204,
              48.6531303
            ],
            [
              7.9273192,
              48.653242
            ],
            [
              7.927515,
              48.6533943
            ],
            [
              7.9273778,
              48.6534766
            ],
            [
              7.9270135,
              48.6531984
            ],
            [
              7.9269277,
              48.6531312
            ],
            [
              7.9268086,
              48.6531975
            ],
            [
              7.9267479,
              48.6532296
            ],
            [
              7.9266728,
              48.6531604
            ]
          ]
        ]
      },
      "id": "way/196784069"
    },
    {
      "type": "Feature",
      "properties": {
        "@id": "way/221603125",
        "addr:city": "Rheinau",
        "addr:housenumber": "29",
        "addr:postcode": "77866",
        "addr:street": "Dorfstraße",
        "building": "yes",
        "name": "Achim Zimmer - landwirtschaftliche Erzeugnisse",
        "shop": "farm"
      },
      "geometry": {
        "type": "Polygon",
        "coordinates": [
          [
            [
              7.9694995,
              48.7052908
            ],
            [
              7.9696658,
              48.7051669
            ],
            [
              7.9698267,
              48.7052625
            ],
            [
              7.9697436,
              48.7053245
            ],
            [
              7.9697838,
              48.7053528
            ],
            [
              7.9698026,
              48.7053386
            ],
            [
              7.9699125,
              48.7054077
            ],
            [
              7.9698053,
              48.7054855
            ],
            [
              7.9694995,
              48.7052908
            ]
          ]
        ]
      },
      "id": "way/221603125"
    },
    {
      "type": "Feature",
      "properties": {
        "@id": "way/223881842",
        "addr:city": "Rheinzabern",
        "addr:country": "DE",
        "addr:housenumber": "4",
        "addr:postcode": "76764",
        "addr:street": "An der alten Neupotzer Straße",
        "building": "yes",
        "shop": "farm"
      },
      "geometry": {
        "type": "Polygon",
        "coordinates": [
          [
            [
              8.2892354,
              49.1226797
            ],
            [
              8.2893007,
              49.1225481
            ],
            [
              8.2894751,
              49.1225852
            ],
            [
              8.2894099,
              49.1227168
            ],
            [
              8.2892354,
              49.1226797
            ]
          ]
        ]
      },
      "id": "way/223881842"
    },
    {
      "type": "Feature",
      "properties": {
        "@id": "way/224683671",
        "addr:city": "Sinzheim",
        "addr:country": "DE",
        "addr:housename": "St. Vinzenzhof",
        "addr:postcode": "76547",
        "building": "shop",
        "name": "Automaten-Hofladen St. Vinzenzhof",
        "opening_hours": "24/7",
        "shop": "farm",
        "website": "http://www.vinzenzhof.de/"
      },
      "geometry": {
        "type": "Polygon",
        "coordinates": [
          [
            [
              8.1488436,
              48.7579457
            ],
            [
              8.1488052,
              48.7578277
            ],
            [
              8.1488559,
              48.7578206
            ],
            [
              8.1489013,
              48.7578141
            ],
            [
              8.1489397,
              48.7579321
            ],
            [
              8.1488436,
              48.7579457
            ]
          ]
        ]
      },
      "id": "way/224683671"
    },
    {
      "type": "Feature",
      "properties": {
        "@id": "way/230556549",
        "building": "yes",
        "description": "Äpfel",
        "name": "Meyer",
        "shop": "farm"
      },
      "geometry": {
        "type": "Polygon",
        "coordinates": [
          [
            [
              8.1202995,
              49.0984215
            ],
            [
              8.1203151,
              49.0983083
            ],
            [
              8.1205268,
              49.0983208
            ],
            [
              8.1205112,
              49.098434
            ],
            [
              8.1202995,
              49.0984215
            ]
          ]
        ]
      },
      "id": "way/230556549"
    },
    {
      "type": "Feature",
      "properties": {
        "@id": "way/251221262",
        "addr:city": "Kandel",
        "addr:country": "DE",
        "addr:housenumber": "7",
        "addr:postcode": "76870",
        "addr:street": "Briandstraße",
        "building": "farm_auxiliary",
        "name": "Schowalter's Spargel",
        "phone": "+49 7275 2266",
        "shop": "farm",
        "website": "http://schowalters-spargel.de/"
      },
      "geometry": {
        "type": "Polygon",
        "coordinates": [
          [
            [
              8.1837828,
              49.0795397
            ],
            [
              8.183817,
              49.0793569
            ],
            [
              8.1838288,
              49.0793578
            ],
            [
              8.1839565,
              49.0793681
            ],
            [
              8.1840591,
              49.0793763
            ],
            [
              8.1840396,
              49.0794806
            ],
            [
              8.1839995,
              49.0794774
            ],
            [
              8.1839908,
              49.0795242
            ],
            [
              8.1838618,
              49.0795139
            ],
            [
              8.1838559,
              49.0795455
            ],
            [
              8.1837828,
              49.0795397
            ]
          ]
        ]
      },
      "id": "way/251221262"
    },
    {
      "type": "Feature",
      "properties": {
        "@id": "way/258020134",
        "addr:city": "Karlsbad",
        "addr:housenumber": "2",
        "addr:postcode": "76307",
        "addr:street": "Im Steinig",
        "building": "yes",
        "name": "Beckers Steinighoflädle",
        "opening_hours": "Mo-Sa",
        "shop": "farm"
      },
      "geometry": {
        "type": "Polygon",
        "coordinates": [
          [
            [
              8.4995805,
              48.9378472
            ],
            [
              8.4995226,
              48.9378294
            ],
            [
              8.4995557,
              48.9377831
            ],
            [
              8.4996135,
              48.9378009
            ],
            [
              8.4995805,
              48.9378472
            ]
          ]
        ]
      },
      "id": "way/258020134"
    },
    {
      "type": "Feature",
      "properties": {
        "@id": "way/288499791",
        "check_date": "2015-12-11",
        "indoor": "room",
        "level": "0",
        "name": "Vongerichten Weingut",
        "room": "shop",
        "shop": "farm"
      },
      "geometry": {
        "type": "Polygon",
        "coordinates": [
          [
            [
              8.4004005,
              48.9941442
            ],
            [
              8.400408,
              48.9941318
            ],
            [
              8.4004278,
              48.9941299
            ],
            [
              8.4004405,
              48.9941405
            ],
            [
              8.4004331,
              48.9941527
            ],
            [
              8.4004131,
              48.9941546
            ],
            [
              8.4004005,
              48.9941442
            ]
          ]
        ]
      },
      "id": "way/288499791"
    },
    {
      "type": "Feature",
      "properties": {
        "@id": "way/305917909",
        "addr:city": "Baden-Baden",
        "addr:country": "DE",
        "addr:housenumber": "184",
        "addr:postcode": "76534",
        "addr:street": "Geroldsauer Straße",
        "building": "yes",
        "name": "Biohof Axel Baumann",
        "phone": "+49 7221 99874",
        "shop": "farm",
        "website": "http://www.schottische-hochlandrinder.de/"
      },
      "geometry": {
        "type": "Polygon",
        "coordinates": [
          [
            [
              8.246921,
              48.723315
            ],
            [
              8.2467365,
              48.72334
            ],
            [
              8.246706,
              48.7232417
            ],
            [
              8.2468904,
              48.7232168
            ],
            [
              8.246921,
              48.723315
            ]
          ]
        ]
      },
      "id": "way/305917909"
    },
    {
      "type": "Feature",
      "properties": {
        "@id": "way/321151358",
        "addr:city": "Oberhausen-Rheinhausen",
        "addr:country": "DE",
        "addr:housenumber": "67",
        "addr:postcode": "68794",
        "addr:street": "Hauptstraße",
        "addr:suburb": "Rheinhausen",
        "level": "0",
        "name": "Spargelhof Kollmar",
        "opening_hours": "closed ||Mo-Fr 8:00-13:00, 15:00-18:00; Sa-Su 8:00-13:00 open \"während der Spargelsaison\"",
        "seasonal": "spring",
        "shop": "farm",
        "wheelchair": "no"
      },
      "geometry": {
        "type": "Polygon",
        "coordinates": [
          [
            [
              8.4730872,
              49.2778006
            ],
            [
              8.4731575,
              49.2777994
            ],
            [
              8.473162,
              49.2779082
            ],
            [
              8.4730919,
              49.2779095
            ],
            [
              8.4730882,
              49.2778241
            ],
            [
              8.4730872,
              49.2778006
            ]
          ]
        ]
      },
      "id": "way/321151358"
    },
    {
      "type": "Feature",
      "properties": {
        "@id": "way/329139622",
        "addr:city": "Rheinmünster",
        "addr:housenumber": "1",
        "addr:place": "Mederhof",
        "building": "yes",
        "name": "Mederhof - Hofladen Rieger",
        "shop": "farm"
      },
      "geometry": {
        "type": "Polygon",
        "coordinates": [
          [
            [
              8.0508868,
              48.7753601
            ],
            [
              8.0511893,
              48.7752465
            ],
            [
              8.0513096,
              48.7753856
            ],
            [
              8.0510071,
              48.7754992
            ],
            [
              8.0508868,
              48.7753601
            ]
          ]
        ]
      },
      "id": "way/329139622"
    },
    {
      "type": "Feature",
      "properties": {
        "@id": "way/342388614",
        "building": "retail",
        "contact:phone": "+49 7232 370171",
        "contact:website": "http://www.koebermuehle.de/",
        "description": "Mühlenladen",
        "name": "Köbers Mühlenladen",
        "opening_hours": "Tu, Th, Fr 09:00-12:30, 15:00-18:00; We 09:00-12:30; Sa 09:00-13:00",
        "operator": "Axel Köber",
        "organic": "yes",
        "shop": "farm",
        "wheelchair": "yes"
      },
      "geometry": {
        "type": "Polygon",
        "coordinates": [
          [
            [
              8.5673528,
              48.9559257
            ],
            [
              8.5672999,
              48.9558781
            ],
            [
              8.5673862,
              48.9558367
            ],
            [
              8.5674392,
              48.9558843
            ],
            [
              8.5673528,
              48.9559257
            ]
          ]
        ]
      },
      "id": "way/342388614"
    },
    {
      "type": "Feature",
      "properties": {
        "@id": "way/352140642",
        "addr:city": "Walzbachtal",
        "addr:country": "DE",
        "addr:housenumber": "140",
        "addr:postcode": "75045",
        "addr:street": "Wössinger Straße",
        "addr:suburb": "Wössingen",
        "building": "yes",
        "name": "Hofladen Unterweger",
        "opening_hours": "Mo-Sa 08:30-12:30; Tu-Fr 08:30-12:30,14:30-18:30",
        "shop": "farm",
        "website": "www.unterweger-hofladen.de",
        "wheelchair": "yes"
      },
      "geometry": {
        "type": "Polygon",
        "coordinates": [
          [
            [
              8.5967593,
              49.0187669
            ],
            [
              8.5970597,
              49.0185752
            ],
            [
              8.597234,
              49.0186948
            ],
            [
              8.5969336,
              49.018883
            ],
            [
              8.5967593,
              49.0187669
            ]
          ]
        ]
      },
      "id": "way/352140642"
    },
    {
      "type": "Feature",
      "properties": {
        "@id": "way/410934477",
        "addr:city": "Steinweiler",
        "addr:housenumber": "9",
        "addr:postcode": "76872",
        "addr:street": "Seehof",
        "building": "yes",
        "name": "Hofverkauf Familie Scheid",
        "opening_hours": "Th,Fr 09:00-12:00,15:00-18:30, Sa 08:00-13:00",
        "operator": "Scheid",
        "phone": "+49 6349 6498",
        "shop": "farm"
      },
      "geometry": {
        "type": "Polygon",
        "coordinates": [
          [
            [
              8.1499464,
              49.1247045
            ],
            [
              8.1499652,
              49.1246659
            ],
            [
              8.1500617,
              49.1246904
            ],
            [
              8.1500403,
              49.1247273
            ],
            [
              8.1499464,
              49.1247045
            ]
          ]
        ]
      },
      "id": "way/410934477"
    },
    {
      "type": "Feature",
      "properties": {
        "@id": "way/520760530",
        "building": "yes",
        "shop": "farm"
      },
      "geometry": {
        "type": "Polygon",
        "coordinates": [
          [
            [
              8.5961323,
              48.9810245
            ],
            [
              8.5961172,
              48.9809705
            ],
            [
              8.5962683,
              48.9809523
            ],
            [
              8.5962834,
              48.9810063
            ],
            [
              8.5961323,
              48.9810245
            ]
          ]
        ]
      },
      "id": "way/520760530"
    },
    {
      "type": "Feature",
      "properties": {
        "@id": "node/270760144",
        "name": "Schleicher Hofladen",
        "shop": "farm"
      },
      "geometry": {
        "type": "Point",
        "coordinates": [
          8.622543,
          49.1418229
        ]
      },
      "id": "node/270760144"
    },
    {
      "type": "Feature",
      "properties": {
        "@id": "node/271908783",
        "addr:city": "Rastatt",
        "addr:housenumber": "2",
        "addr:postcode": "76437",
        "addr:street": "Murgerstal",
        "shop": "farm"
      },
      "geometry": {
        "type": "Point",
        "coordinates": [
          8.2234768,
          48.8246612
        ]
      },
      "id": "node/271908783"
    },
    {
      "type": "Feature",
      "properties": {
        "@id": "node/309766316",
        "addr:city": "Neulingen",
        "addr:housenumber": "34",
        "addr:postcode": "75245",
        "addr:street": "Auweg",
        "name": "Gemüseverkauf Auenhof",
        "opening_hours": "off",
        "shop": "farm"
      },
      "geometry": {
        "type": "Point",
        "coordinates": [
          8.7382052,
          48.9700158
        ]
      },
      "id": "node/309766316"
    },
    {
      "type": "Feature",
      "properties": {
        "@id": "node/338249698",
        "name": "Hofladen Berghof",
        "organic": "yes",
        "shop": "farm"
      },
      "geometry": {
        "type": "Point",
        "coordinates": [
          8.9764219,
          48.9102154
        ]
      },
      "id": "node/338249698"
    },
    {
      "type": "Feature",
      "properties": {
        "@id": "node/358342502",
        "addr:city": "Ottersweier",
        "addr:country": "DE",
        "addr:housenumber": "15",
        "addr:postcode": "77833",
        "addr:street": "Bachstraße",
        "contact:phone": "+49 7223 26514",
        "lastcheck": "2016-01-26",
        "name": "Seifermann's Bauernhof",
        "opening_hours": "Tu 08:00-19:00; Th 15:00-19:00; Fr 07:30-19:00; Sa 07:30-14:00",
        "organic": "only",
        "shop": "farm"
      },
      "geometry": {
        "type": "Point",
        "coordinates": [
          8.1086388,
          48.6684342
        ]
      },
      "id": "node/358342502"
    },
    {
      "type": "Feature",
      "properties": {
        "@id": "node/515019998",
        "shop": "farm"
      },
      "geometry": {
        "type": "Point",
        "coordinates": [
          8.5805075,
          48.8910813
        ]
      },
      "id": "node/515019998"
    },
    {
      "type": "Feature",
      "properties": {
        "@id": "node/795947931",
        "amenity": "vending_machine",
        "contact:phone": "+49 7202 7891",
        "contact:website": "http://www.milchhof-knodel.de/",
        "covered": "yes",
        "milk": "raw_milk",
        "name": "Milch-Verkaufsautomat",
        "opening_hours": "24/7",
        "operator": "Thomas Knodel",
        "payment:cash": "yes",
        "payment:coins": "yes",
        "payment:notes": "no",
        "shop": "farm",
        "vending": "milk",
        "wheelchair": "yes"
      },
      "geometry": {
        "type": "Point",
        "coordinates": [
          8.4917662,
          48.9313083
        ]
      },
      "id": "node/795947931"
    },
    {
      "type": "Feature",
      "properties": {
        "@id": "node/963046046",
        "addr:city": "Schweighofen",
        "addr:country": "DE",
        "addr:housenumber": "12",
        "addr:postcode": "76889",
        "addr:street": "Hauptstraße",
        "name": "Obst und Weinhof Michael Fischer",
        "shop": "farm",
        "website": "http://www.schweighofen.de/html/fischer_michael.html"
      },
      "geometry": {
        "type": "Point",
        "coordinates": [
          7.9905051,
          49.0391176
        ]
      },
      "id": "node/963046046"
    },
    {
      "type": "Feature",
      "properties": {
        "@id": "node/977635174",
        "amenity": "vending_machine",
        "name": "Eier-Verkaufsautomat",
        "opening_hours": "24/7",
        "operator": "Geflügelhof Denninger",
        "payment:coins": "yes",
        "payment:notes": "no",
        "shop": "farm",
        "vending": "eggs"
      },
      "geometry": {
        "type": "Point",
        "coordinates": [
          8.4943061,
          48.9359101
        ]
      },
      "id": "node/977635174"
    },
    {
      "type": "Feature",
      "properties": {
        "@id": "node/1017755340",
        "addr:city": "Pfinztal",
        "addr:country": "DE",
        "addr:housenumber": "1",
        "addr:postcode": "76327",
        "addr:street": "Am Heulenberg",
        "name": "Biolandhof Petrik",
        "opening_hours": "Tu 09:00-18:00;Fr 09:00-18:00; Sa 8:30-12:30",
        "shop": "farm"
      },
      "geometry": {
        "type": "Point",
        "coordinates": [
          8.5454803,
          49.0008602
        ]
      },
      "id": "node/1017755340"
    },
    {
      "type": "Feature",
      "properties": {
        "@id": "node/1112394269",
        "addr:city": "Ehningen",
        "addr:country": "DE",
        "addr:postcode": "71139",
        "addr:street": "Hintere Burgwiesen",
        "contact:email": "einkaufen@burghof-tafel.de",
        "contact:fax": "+49 7034 31777",
        "contact:phone": "+49 7034 5379",
        "contact:website": "http://www.burghof-tafel.de/",
        "name": "Burghof Tafel",
        "opening_hours": "Mo 09:00-13:00; Tu,Fr 09:00-12:30,15:00-18:30; We,Th,Sa 09:00-12:30; PH off",
        "organic": "yes",
        "shop": "farm",
        "wheelchair": "no"
      },
      "geometry": {
        "type": "Point",
        "coordinates": [
          8.940229,
          48.6559406
        ]
      },
      "id": "node/1112394269"
    },
    {
      "type": "Feature",
      "properties": {
        "@id": "node/1209214241",
        "amenity": "vending_machine",
        "name": "Eier-Verkaufsautomat",
        "opening_hours": "24/7",
        "operator": "Geflügelhof Günth",
        "payment:coins": "yes",
        "payment:notes": "no",
        "shop": "farm",
        "vending": "eggs"
      },
      "geometry": {
        "type": "Point",
        "coordinates": [
          8.362975,
          48.9299158
        ]
      },
      "id": "node/1209214241"
    },
    {
      "type": "Feature",
      "properties": {
        "@id": "node/1287604236",
        "amenity": "vending_machine",
        "food": "eggs",
        "name": "Eierverkaufs-Automat",
        "payment:coins": "yes",
        "payment:notes": "yes",
        "self_service": "yes",
        "shop": "farm",
        "vending": "food"
      },
      "geometry": {
        "type": "Point",
        "coordinates": [
          8.5166076,
          49.0325043
        ]
      },
      "id": "node/1287604236"
    },
    {
      "type": "Feature",
      "properties": {
        "@id": "node/1291566278",
        "addr:city": "Bad Liebenzell",
        "addr:country": "DE",
        "addr:housenumber": "57",
        "addr:postcode": "75378",
        "addr:street": "Zwerweg",
        "addr:suburb": "Unterlengenhardt",
        "name": "Ulmenhof",
        "opening_hours": "Mo-Tu 09:00-12:30,15:00-18:30; We 09:00-12:30; Th-Fr 09:00-12:30,15:00-18:30",
        "shop": "farm",
        "website": "http://www.ulmenhof-unterlengenhardt.de/"
      },
      "geometry": {
        "type": "Point",
        "coordinates": [
          8.7195075,
          48.7845473
        ]
      },
      "id": "node/1291566278"
    },
    {
      "type": "Feature",
      "properties": {
        "@id": "node/1323383106",
        "name": "Spargelhof Schmitt",
        "shop": "farm"
      },
      "geometry": {
        "type": "Point",
        "coordinates": [
          8.2739384,
          48.8966793
        ]
      },
      "id": "node/1323383106"
    },
    {
      "type": "Feature",
      "properties": {
        "@id": "node/1332199405",
        "name": "Hofladen Oesterle",
        "shop": "farm"
      },
      "geometry": {
        "type": "Point",
        "coordinates": [
          8.4063528,
          49.0743589
        ]
      },
      "id": "node/1332199405"
    },
    {
      "type": "Feature",
      "properties": {
        "@id": "node/1472922151",
        "name": "Iris' Hoflädle",
        "shop": "farm"
      },
      "geometry": {
        "type": "Point",
        "coordinates": [
          8.7605648,
          49.0912715
        ]
      },
      "id": "node/1472922151"
    },
    {
      "type": "Feature",
      "properties": {
        "@id": "node/1707576949",
        "name": "Bauernhof Kieffer",
        "shop": "farm"
      },
      "geometry": {
        "type": "Point",
        "coordinates": [
          7.9950287,
          49.0394975
        ]
      },
      "id": "node/1707576949"
    },
    {
      "type": "Feature",
      "properties": {
        "@id": "node/1769301517",
        "addr:city": "Stutensee",
        "addr:country": "DE",
        "addr:postcode": "76297",
        "addr:street": "Im Gewann Herrenäcker",
        "addr:suburb": "Staffort",
        "contact:phone": "+49 7249 951793",
        "name": "Meierhoflädle",
        "opening_hours": "Tu-Fr 09:00-18:00; Sa 09:00-14:00; Apr-Jun 09:00-18:00",
        "operator": "Thomas Meier",
        "produce": "asparagus, strawberries, regional fruits, regional vegetables, beef",
        "shop": "farm",
        "wheelchair": "yes"
      },
      "geometry": {
        "type": "Point",
        "coordinates": [
          8.5003409,
          49.0958403
        ]
      },
      "id": "node/1769301517"
    },
    {
      "type": "Feature",
      "properties": {
        "@id": "node/1861716325",
        "contact:fax": "+49 7249 9471251",
        "contact:phone": "+49 7249 9471250",
        "name": "Leicht's Hofladen Stutensee-Herrnauhof",
        "opening_hours": "Mo-Su 09:00-18:00",
        "produce": "strawberries",
        "shop": "farm",
        "wheelchair": "yes"
      },
      "geometry": {
        "type": "Point",
        "coordinates": [
          8.5033753,
          49.0973934
        ]
      },
      "id": "node/1861716325"
    },
    {
      "type": "Feature",
      "properties": {
        "@id": "node/1917502551",
        "addr:city": "Bretten",
        "addr:country": "DE",
        "addr:housenumber": "4/1",
        "addr:postcode": "75015",
        "addr:street": "Salzhofen",
        "name": "Zonsius",
        "opening_hours": "Th-Fr 10:00-18:30; Sa 09:00-13:00",
        "shop": "farm"
      },
      "geometry": {
        "type": "Point",
        "coordinates": [
          8.69848,
          49.0252762
        ]
      },
      "id": "node/1917502551"
    },
    {
      "type": "Feature",
      "properties": {
        "@id": "node/1949102477",
        "contact:city": "Roppenheim",
        "contact:housenumber": "7",
        "contact:phone": "+33 3 88 86 32 53",
        "contact:postcode": "67480",
        "contact:street": "Rue des Bergers",
        "contact:website": "www.auparadisdespoules-roppenheim.fr",
        "name": "Au Paradis des Poules",
        "opening_hours": "Tu-Fr 09:00-12:00, 14:00-18:00; Sa 09:00-16:00",
        "shop": "farm"
      },
      "geometry": {
        "type": "Point",
        "coordinates": [
          8.0538649,
          48.8409756
        ]
      },
      "id": "node/1949102477"
    },
    {
      "type": "Feature",
      "properties": {
        "@id": "node/1949102478",
        "alt_name": "EARL Tuchscherer",
        "name": "Chez Murielle",
        "shop": "farm"
      },
      "geometry": {
        "type": "Point",
        "coordinates": [
          8.0559629,
          48.8439678
        ]
      },
      "id": "node/1949102478"
    },
    {
      "type": "Feature",
      "properties": {
        "@id": "node/2189856258",
        "name": "Hofgut Georgenau",
        "opening_hours": "Tu-Fr 09:30-13:00, 15:30-18:30; Sa 09:30-13:00",
        "shop": "farm",
        "website": "http://www.hofgut-georgenau.de"
      },
      "geometry": {
        "type": "Point",
        "coordinates": [
          8.780795,
          48.7584114
        ]
      },
      "id": "node/2189856258"
    },
    {
      "type": "Feature",
      "properties": {
        "@id": "node/2245135872",
        "addr:city": "Bad Liebenzell",
        "addr:country": "DE",
        "addr:housenumber": "101",
        "addr:postcode": "75378",
        "addr:street": "Maisenbacher Straße",
        "addr:suburb": "Beinberg",
        "building": "yes",
        "fixme": "check housenumber=99?",
        "name": "Hardthof",
        "opening_hours": "Fr 10:00-18:00; Sa 09:00-12:00",
        "operator": "Fam. Gorjup",
        "shop": "farm",
        "website": "http://www.hardthof-beinberg.de/"
      },
      "geometry": {
        "type": "Point",
        "coordinates": [
          8.7029042,
          48.766649
        ]
      },
      "id": "node/2245135872"
    },
    {
      "type": "Feature",
      "properties": {
        "@id": "node/2501724940",
        "addr:city": "Oberderdingen",
        "addr:country": "DE",
        "addr:postcode": "75038",
        "name": "Luisenhof",
        "opening_hours": "Tu-Th 09:00-12:00,15:00-18:00; Fr 09:00-18:00; Sa 09:00-12:00",
        "shop": "farm",
        "website": "http://hofladen-luisenhof.de/"
      },
      "geometry": {
        "type": "Point",
        "coordinates": [
          8.7817293,
          49.1073478
        ]
      },
      "id": "node/2501724940"
    },
    {
      "type": "Feature",
      "properties": {
        "@id": "node/2992019979",
        "name": "Merkelhof",
        "shop": "farm"
      },
      "geometry": {
        "type": "Point",
        "coordinates": [
          8.3278157,
          49.2750954
        ]
      },
      "id": "node/2992019979"
    },
    {
      "type": "Feature",
      "properties": {
        "@id": "node/3112733631",
        "name": "Hofgut Mauren",
        "opening_hours": "Mo,Tu 09:00-13:00,16:00-18:30; We 09:00-18:30; Th,Fr 08:00-18:30; Sa 08:00-13:00; Aug Mo,Tu 09:00-13:00; PH off",
        "phone": "+49 7034 653542",
        "shop": "farm",
        "website": "http://www.hofgut-mauren.de/hofladen/hofladen_intro.htm"
      },
      "geometry": {
        "type": "Point",
        "coordinates": [
          8.9785283,
          48.650973
        ]
      },
      "id": "node/3112733631"
    },
    {
      "type": "Feature",
      "properties": {
        "@id": "node/3394233139",
        "check_date": "2018-01",
        "contact:website": "http://www.hagsfelder-hofladen.de/",
        "name": "Hagsfelder Hofladen",
        "opening_hours": "We-Fr 12:00-18:00; Sa 08:00-13:00",
        "operator": "Familie Beideck",
        "shop": "farm",
        "wheelchair": "limited"
      },
      "geometry": {
        "type": "Point",
        "coordinates": [
          8.4612404,
          49.0261279
        ]
      },
      "id": "node/3394233139"
    },
    {
      "type": "Feature",
      "properties": {
        "@id": "node/3419465605",
        "addr:city": "Keltern",
        "addr:housenumber": "1",
        "addr:place": "Steinäcker",
        "name": "Hofladen",
        "opening_hours": "Th 09:00-18:00; Fr 15:30-18:00",
        "shop": "farm",
        "wheelchair": "yes"
      },
      "geometry": {
        "type": "Point",
        "coordinates": [
          8.6139137,
          48.8973303
        ]
      },
      "id": "node/3419465605"
    },
    {
      "type": "Feature",
      "properties": {
        "@id": "node/3456220402",
        "contact:website": "http://www.stefan-fischer-weingut.de",
        "name": "Weingut Stefan Fischer",
        "shop": "farm"
      },
      "geometry": {
        "type": "Point",
        "coordinates": [
          7.9927088,
          49.039997
        ]
      },
      "id": "node/3456220402"
    },
    {
      "type": "Feature",
      "properties": {
        "@id": "node/3474962819",
        "amenity": "vending_machine",
        "contact:website": "www.beckers-hofladen.de",
        "name": "Beckers Häuschen (Eier-Wurst-Verkauf)",
        "opening_hours": "08:00-20:00",
        "operator": "Bauernhof Becker",
        "payment:coins": "yes",
        "payment:notes": "no",
        "shop": "farm",
        "vending": "food"
      },
      "geometry": {
        "type": "Point",
        "coordinates": [
          8.4755943,
          48.9417052
        ]
      },
      "id": "node/3474962819"
    },
    {
      "type": "Feature",
      "properties": {
        "@id": "node/3503556481",
        "addr:city": "Keltern",
        "addr:country": "DE",
        "addr:housenumber": "6",
        "addr:postcode": "75210",
        "addr:street": "Kirchstraße",
        "addr:suburb": "Weiler",
        "contact:email": "info@muehle-beck.de",
        "contact:fax": "+49 7236 980696",
        "contact:phone": "+49 7236 980694",
        "contact:website": "https://www.muehle-beck.de/",
        "description": "Mühlenladen",
        "name": "Mühle Beck",
        "opening_hours": "Mo-Fr 08:00-12:30, 13:00-18:00; Sa 08:00-12:30",
        "organic": "yes",
        "shop": "farm"
      },
      "geometry": {
        "type": "Point",
        "coordinates": [
          8.546013,
          48.888049
        ]
      },
      "id": "node/3503556481"
    },
    {
      "type": "Feature",
      "properties": {
        "@id": "node/3624082798",
        "fixme": "position estimated",
        "shop": "farm"
      },
      "geometry": {
        "type": "Point",
        "coordinates": [
          8.3055425,
          49.0312182
        ]
      },
      "id": "node/3624082798"
    },
    {
      "type": "Feature",
      "properties": {
        "@id": "node/3652380840",
        "name": "Häberle GbR Direktvermarktung",
        "produce": "meat;maultaschen;sausage;linseed;lenses",
        "shop": "farm",
        "website": "http://www.direktvermarktunghaeberle.de/"
      },
      "geometry": {
        "type": "Point",
        "coordinates": [
          8.8145074,
          48.7409604
        ]
      },
      "id": "node/3652380840"
    },
    {
      "type": "Feature",
      "properties": {
        "@id": "node/3722042980",
        "name": "Hofladen Gut Batzenhof",
        "shop": "farm",
        "website": "http://gut-batzenhof.de/laden.html"
      },
      "geometry": {
        "type": "Point",
        "coordinates": [
          8.4941119,
          48.9590752
        ]
      },
      "id": "node/3722042980"
    },
    {
      "type": "Feature",
      "properties": {
        "@id": "node/3761965213",
        "addr:city": "Bruchsal",
        "addr:country": "DE",
        "addr:housenumber": "19",
        "addr:postcode": "76646",
        "addr:street": "Neutharder Straße",
        "addr:suburb": "Büchenau",
        "contact:email": "info@landkostladen.de",
        "contact:phone": "0049-07257-931315",
        "contact:website": "http://www.landkostladen.de/",
        "name": "Schäffner Landkost-Hofladen",
        "shop": "farm"
      },
      "geometry": {
        "type": "Point",
        "coordinates": [
          8.5280368,
          49.1092334
        ]
      },
      "id": "node/3761965213"
    },
    {
      "type": "Feature",
      "properties": {
        "@id": "node/3904730915",
        "addr:street": "Am Derdinger Brünnle",
        "name": "Hofladen Burkhard",
        "opening_hours": "Th,Fr 08:00-12:00,17:00-19:00; Sa 08:00-14:00",
        "phone": "+49 7252 41543",
        "shop": "farm"
      },
      "geometry": {
        "type": "Point",
        "coordinates": [
          8.733145,
          49.0400426
        ]
      },
      "id": "node/3904730915"
    },
    {
      "type": "Feature",
      "properties": {
        "@id": "node/3940288714",
        "name": "Spargelverkauf Beate Zimmermann",
        "phone": "+49 07255 6241",
        "shop": "farm",
        "website": "http://www.spargelanbau.net"
      },
      "geometry": {
        "type": "Point",
        "coordinates": [
          8.4827753,
          49.1563779
        ]
      },
      "id": "node/3940288714"
    },
    {
      "type": "Feature",
      "properties": {
        "@id": "node/4064705918",
        "shop": "farm"
      },
      "geometry": {
        "type": "Point",
        "coordinates": [
          8.0907295,
          49.0963263
        ]
      },
      "id": "node/4064705918"
    },
    {
      "type": "Feature",
      "properties": {
        "@id": "node/4186995802",
        "addr:city": "Karlsruhe",
        "addr:country": "DE",
        "addr:housenumber": "5",
        "addr:postcode": "76199",
        "addr:street": "Gewann Amtmännenwiese",
        "addr:suburb": "Rüppurr",
        "contact:email": "kontakt@beckershofladen.de",
        "contact:phone": "+49 721 890126",
        "contact:website": "http://www.beckershofladen.de/",
        "description": "meat, eggs, seasonal fruits, seansonal vegetables, nudles, flour",
        "fixme": "position estimated",
        "name": "Becker’s Hofladen",
        "opening_hours": "Mo-We 15:00-18:30; Th-Fr 09:00-12:00, 15:00-18:30; Sa 09:00-13:00",
        "operator": "Matthias Becker",
        "shop": "farm"
      },
      "geometry": {
        "type": "Point",
        "coordinates": [
          8.3894207,
          48.9644564
        ]
      },
      "id": "node/4186995802"
    },
    {
      "type": "Feature",
      "properties": {
        "@id": "node/4186995803",
        "addr:city": "Karlsruhe",
        "addr:country": "DE",
        "addr:housenumber": "17",
        "addr:postcode": "76187",
        "addr:street": "Jakob-Dörr-Straße",
        "addr:suburb": "Knielingen",
        "contact:website": "http://www.biokaufladen.de/",
        "description": "grain, flour, nudles, eggs, potatos, apple juice",
        "fixme": "position estimated",
        "name": "Bioland-Hofladen Litzenberger",
        "opening_hours": "Th 17:00-18:30; Sa 10:00-12:00",
        "operator": "Gudrun Litzenberger",
        "organic": "yes",
        "shop": "farm"
      },
      "geometry": {
        "type": "Point",
        "coordinates": [
          8.3346513,
          49.0394856
        ]
      },
      "id": "node/4186995803"
    },
    {
      "type": "Feature",
      "properties": {
        "@id": "node/4186995804",
        "addr:city": "Karlsruhe",
        "addr:country": "DE",
        "addr:housenumber": "3",
        "addr:postcode": "76199",
        "addr:street": "Gewann Amtmännenwiese",
        "addr:suburb": "Rüppurr",
        "contact:email": "kontakt@hofgut-schleinkofer.de",
        "contact:fax": "+49 721 98929260",
        "contact:phone": "+49 721 98929259",
        "contact:website": "http://www.hofgut-schleinkofer.de/",
        "description": "milk, grain, flour, meat, vegetables, fruits",
        "fixme": "position estimated",
        "name": "Hofgut Schleinkofer",
        "opening_hours": "08:00-20:00",
        "operator": "Susanne Schleinkofer",
        "shop": "farm"
      },
      "geometry": {
        "type": "Point",
        "coordinates": [
          8.3878148,
          48.965785
        ]
      },
      "id": "node/4186995804"
    },
    {
      "type": "Feature",
      "properties": {
        "@id": "node/4186995805",
        "addr:city": "Ettlingen",
        "addr:country": "DE",
        "addr:housenumber": "36",
        "addr:postcode": "76275",
        "addr:street": "Durlacher Straße",
        "contact:email": "info@hedwigshof.de",
        "contact:phone": "+49 7243 16982",
        "contact:website": "http://www.hedwigshof.de/",
        "description": "beaf, porc, eggs, nuddles, potatos",
        "fixme": "position estimated",
        "name": "Hofladen Hedwigshof",
        "opening_hours": "Th 15:00-18:00; Fr 11:00-18:00; Sa 09:00-12:00",
        "operator": "Markus Klatz",
        "shop": "farm"
      },
      "geometry": {
        "type": "Point",
        "coordinates": [
          8.4308374,
          48.9580277
        ]
      },
      "id": "node/4186995805"
    },
    {
      "type": "Feature",
      "properties": {
        "@id": "node/4186995806",
        "addr:city": "Ettlingen",
        "addr:country": "DE",
        "addr:housenumber": "34a",
        "addr:postcode": "76275",
        "addr:street": "Durlacher Straße",
        "description": "potatoes, vegetables, salad, fruits, eggs, nudles",
        "fixme": "position estimated",
        "name": "Hofladen zum 1. Brückle",
        "opening_hours": "Tu, Fr 14:00-18:00; Sa 09:00-13:00",
        "operator": "Franz Link",
        "shop": "farm"
      },
      "geometry": {
        "type": "Point",
        "coordinates": [
          8.4221481,
          48.9534689
        ]
      },
      "id": "node/4186995806"
    },
    {
      "type": "Feature",
      "properties": {
        "@id": "node/4186995807",
        "addr:city": "Stutensee",
        "addr:country": "DE",
        "addr:housenumber": "1",
        "addr:place": "Lindenhof",
        "addr:postcode": "76297",
        "addr:suburb": "Blankenloch",
        "description": "potatoes",
        "fixme": "position estimated",
        "name": "Lindenhof",
        "opening_hours": "Mo-Fr 08:00-12:00, 13:00-18:00; Sa 08:00-14:00",
        "operator": "Uwe Lengert",
        "shop": "farm"
      },
      "geometry": {
        "type": "Point",
        "coordinates": [
          8.4863001,
          49.083267
        ]
      },
      "id": "node/4186995807"
    },
    {
      "type": "Feature",
      "properties": {
        "@id": "node/4186995808",
        "addr:city": "Karlsruhe",
        "addr:country": "DE",
        "addr:housenumber": "25",
        "addr:postcode": "76227",
        "addr:street": "Neßlerstraße",
        "addr:suburb": "Grötzingen",
        "contact:email": "poststelle@ltz.bwl.de",
        "contact:phone": "+49 721 9468355",
        "contact:website": "http://www.ltz-bw.de/",
        "description": "fruits",
        "fixme": "position estimated",
        "name": "Obsthof Augustenberg",
        "opening_hours": "Jan-Apr, Sep-Dec: Mo-Th 10:00-12:00, 15:00-17:00, Fr 10:00-12:00, 13:00-16:00; Jun-Aug: Mo-Th 11:00-12:00, 15:30-16:30, Fr 11:00-12:00, 15:00-16:00; May: off",
        "operator": "Landwirtschaftliches Technologiezentrum",
        "shop": "farm"
      },
      "geometry": {
        "type": "Point",
        "coordinates": [
          8.4952426,
          49.0038076
        ]
      },
      "id": "node/4186995808"
    },
    {
      "type": "Feature",
      "properties": {
        "@id": "node/4198725433",
        "addr:city": "Schwegenheim",
        "addr:housenumber": "100",
        "addr:postcode": "67365",
        "addr:street": "Hauptstraße",
        "name": "Manger",
        "shop": "farm",
        "website": "http://www.manger.de/"
      },
      "geometry": {
        "type": "Point",
        "coordinates": [
          8.3272461,
          49.2687803
        ]
      },
      "id": "node/4198725433"
    },
    {
      "type": "Feature",
      "properties": {
        "@id": "node/4316643199",
        "name": "Messners Bauernladen",
        "organic": "yes",
        "shop": "farm",
        "website": "http://www.messners-bauernladen.de/",
        "wheelchair": "yes"
      },
      "geometry": {
        "type": "Point",
        "coordinates": [
          8.9654423,
          48.7249694
        ]
      },
      "id": "node/4316643199"
    },
    {
      "type": "Feature",
      "properties": {
        "@id": "node/4341696274",
        "addr:city": "Dettenheim",
        "addr:country": "DE",
        "addr:housenumber": "15",
        "addr:postcode": "76706",
        "addr:street": "Huttenheimer Straße",
        "addr:suburb": "Rußheim",
        "name": "Storchenhof-Hofladen",
        "operator": "Fritz Gruber",
        "organic": "yes",
        "product": "meat;eggs",
        "shop": "farm"
      },
      "geometry": {
        "type": "Point",
        "coordinates": [
          8.4233112,
          49.1857759
        ]
      },
      "id": "node/4341696274"
    },
    {
      "type": "Feature",
      "properties": {
        "@id": "node/4350708075",
        "shop": "farm"
      },
      "geometry": {
        "type": "Point",
        "coordinates": [
          8.0297505,
          49.1963075
        ]
      },
      "id": "node/4350708075"
    },
    {
      "type": "Feature",
      "properties": {
        "@id": "node/4393192420",
        "addr:city": "Stutensee",
        "addr:country": "DE",
        "addr:housenumber": "25",
        "addr:postcode": "76297",
        "addr:street": "Spechaastraße",
        "addr:suburb": "Spöck",
        "contact:phone": "+49 7255 6187",
        "name": "s'Hoflädle",
        "opening_hours": "Sa 08:30-12:30",
        "shop": "farm"
      },
      "geometry": {
        "type": "Point",
        "coordinates": [
          8.5108398,
          49.1123491
        ]
      },
      "id": "node/4393192420"
    },
    {
      "type": "Feature",
      "properties": {
        "@id": "node/4415824467",
        "name": "Bauernhof Leis",
        "opening_hours": "24/7",
        "payment:cash": "yes",
        "shop": "farm",
        "website": "http://bauernhof-leis.de/"
      },
      "geometry": {
        "type": "Point",
        "coordinates": [
          8.7844683,
          49.0866048
        ]
      },
      "id": "node/4415824467"
    },
    {
      "type": "Feature",
      "properties": {
        "@id": "node/4445173392",
        "addr:city": "Ehningen",
        "addr:country": "DE",
        "addr:housenumber": "31",
        "addr:postcode": "71139",
        "addr:street": "Hildrizhauser Straße",
        "name": "Obsthof Kempf",
        "opening_hours": "Mo,We,Fr 09:00-13:00,16:30-19:00; Sa 09:00-13:00; PH off",
        "organic": "yes",
        "phone": "+49 7034 5611",
        "shop": "farm",
        "website": "http://www.obsthof-kempf.de/",
        "wheelchair": "yes"
      },
      "geometry": {
        "type": "Point",
        "coordinates": [
          8.9413088,
          48.6574116
        ]
      },
      "id": "node/4445173392"
    },
    {
      "type": "Feature",
      "properties": {
        "@id": "node/4569976572",
        "name": "Tätigerhof Croissant",
        "shop": "farm"
      },
      "geometry": {
        "type": "Point",
        "coordinates": [
          8.1889595,
          49.2627069
        ]
      },
      "id": "node/4569976572"
    },
    {
      "type": "Feature",
      "properties": {
        "@id": "node/4730740744",
        "contact:email": "pfinzhof@gmx.de",
        "contact:fax": "+49 7249 9549610",
        "contact:phone": "+49 7249 953611",
        "contact:website": "https://pfinzhof.jimdo.com/",
        "name": "Pfinzhof Hauth",
        "opening_hours": "Mo-Sa 08:00-12:00; Mo-Tu, Th-Fr 14:00-18:00",
        "operator": "Elsbeth Hauth",
        "produce": "potatoes, strawberries, regional fruits, regional vegetables, flour, noodles",
        "product": "apple juice",
        "shop": "farm"
      },
      "geometry": {
        "type": "Point",
        "coordinates": [
          8.5100162,
          49.0942754
        ]
      },
      "id": "node/4730740744"
    },
    {
      "type": "Feature",
      "properties": {
        "@id": "node/4760516721",
        "addr:city": "Schwegenheim",
        "addr:housenumber": "97",
        "addr:postcode": "67365",
        "addr:street": "Hauptstraße",
        "shop": "farm"
      },
      "geometry": {
        "type": "Point",
        "coordinates": [
          8.3260265,
          49.2680121
        ]
      },
      "id": "node/4760516721"
    },
    {
      "type": "Feature",
      "properties": {
        "@id": "node/4760516727",
        "addr:city": "Schwegenheim",
        "addr:housenumber": "75",
        "addr:postcode": "67365",
        "addr:street": "Hauptstraße",
        "name": "Ackermanns Lädchen",
        "shop": "farm"
      },
      "geometry": {
        "type": "Point",
        "coordinates": [
          8.327814,
          49.2687853
        ]
      },
      "id": "node/4760516727"
    },
    {
      "type": "Feature",
      "properties": {
        "@id": "node/4760516786",
        "shop": "farm"
      },
      "geometry": {
        "type": "Point",
        "coordinates": [
          8.3313838,
          49.270355
        ]
      },
      "id": "node/4760516786"
    },
    {
      "type": "Feature",
      "properties": {
        "@id": "node/4763873556",
        "addr:city": "Schwegenheim",
        "addr:housenumber": "7",
        "addr:postcode": "67365",
        "addr:street": "Hauptstraße",
        "shop": "farm"
      },
      "geometry": {
        "type": "Point",
        "coordinates": [
          8.3348589,
          49.2709399
        ]
      },
      "id": "node/4763873556"
    },
    {
      "type": "Feature",
      "properties": {
        "@id": "node/4818296488",
        "name": "Eier, Milch, Apfelsaft und mehr",
        "shop": "farm"
      },
      "geometry": {
        "type": "Point",
        "coordinates": [
          8.8058677,
          48.9570214
        ]
      },
      "id": "node/4818296488"
    },
    {
      "type": "Feature",
      "properties": {
        "@id": "node/4887146475",
        "description": "Wein, Sekt Säfte",
        "name": "Weingut Johanneshof",
        "shop": "farm"
      },
      "geometry": {
        "type": "Point",
        "coordinates": [
          8.0812436,
          49.1408409
        ]
      },
      "id": "node/4887146475"
    },
    {
      "type": "Feature",
      "properties": {
        "@id": "node/4935111047",
        "addr:city": "Stutensee",
        "addr:country": "DE",
        "addr:housenumber": "10",
        "addr:postcode": "76297",
        "addr:street": "Pfinzstraße",
        "addr:suburb": "Büchig",
        "contact:email": "info@landschaftspflege-mohrhardt.de",
        "contact:fax": "+49 721 670254",
        "contact:phone": "+49 721 678069",
        "contact:website": "http://landschaftspflege-mohrhardt.de/",
        "name": "Garten- und Landschaftspflege Mohrhardt",
        "opening_hours": "Mo-Su 08:00-21:00",
        "operator": "Rainer Mohrhardt",
        "produce": "eggs;nudels",
        "shop": "farm"
      },
      "geometry": {
        "type": "Point",
        "coordinates": [
          8.4734172,
          49.0475709
        ]
      },
      "id": "node/4935111047"
    },
    {
      "type": "Feature",
      "properties": {
        "@id": "node/5061061549",
        "addr:city": "Pfinztal",
        "addr:country": "DE",
        "addr:housenumber": "1",
        "addr:postcode": "76327",
        "addr:street": "Obsthof",
        "addr:suburb": "Söllingen",
        "email": "info@obstbauwenz.de",
        "name": "Obstbau Wenz",
        "phone": "+49 7240 4617",
        "shop": "farm",
        "website": "http://www.obstbauwenz.de/"
      },
      "geometry": {
        "type": "Point",
        "coordinates": [
          8.5281613,
          48.9851669
        ]
      },
      "id": "node/5061061549"
    },
    {
      "type": "Feature",
      "properties": {
        "@id": "node/5104588745",
        "name": "Kartoffelhof Böhm",
        "shop": "farm"
      },
      "geometry": {
        "type": "Point",
        "coordinates": [
          8.2851666,
          49.1870085
        ]
      },
      "id": "node/5104588745"
    },
    {
      "type": "Feature",
      "properties": {
        "@id": "node/5162833322",
        "addr:city": "Karlsruhe",
        "addr:country": "DE",
        "addr:housenumber": "49",
        "addr:postcode": "76227",
        "addr:street": "Ostmarkstraße",
        "name": "Hofverkauf",
        "opening_hours": "Tu,Th 08:00-13:30; We,Fr 17:00-19:00; PH off",
        "shop": "farm"
      },
      "geometry": {
        "type": "Point",
        "coordinates": [
          8.4531983,
          48.9909058
        ]
      },
      "id": "node/5162833322"
    },
    {
      "type": "Feature",
      "properties": {
        "@id": "node/5223359764",
        "addr:city": "Bruchsal",
        "addr:country": "DE",
        "addr:housenumber": "11a",
        "addr:postcode": "76646",
        "addr:street": "Im Weier",
        "addr:suburb": "Untergrombach",
        "name": "Geflügelhof Schneider",
        "phone": "+497257930555",
        "shop": "farm",
        "website": "https://ka.stadtwiki.net/Gefl%C3%BCgelhof_Schneider"
      },
      "geometry": {
        "type": "Point",
        "coordinates": [
          8.5488988,
          49.0848991
        ]
      },
      "id": "node/5223359764"
    },
    {
      "type": "Feature",
      "properties": {
        "@id": "node/5398120737",
        "name": "Hofladen Starck",
        "opening_hours": "Mo-Fr 08:00-13:00",
        "phone": "+49 176 78246228",
        "shop": "farm"
      },
      "geometry": {
        "type": "Point",
        "coordinates": [
          8.164773,
          49.1896081
        ]
      },
      "id": "node/5398120737"
    }
  ]
}
